NORAD_CAT_ID,OBJECT_NAME,OBJECT_TYPE,EPOCH,MEAN_MOTION,ECCENTRICITY,INCLINATION,RA_OF_ASC_NODE,ARG_OF_PERICENTER,MEAN_ANOMALY,BSTAR,MEAN_MOTION_DOT,MEAN_MOTION_DDOT,TLE_LINE0,TLE_LINE1,TLE_LINE2,SEMIMAJOR_AXIS,PERIOD,APOGEE,PERIGEE,DECAYED
54075.0,STARLINK-5212,PAYLOAD,2023-11-21 17:16:24,15.08845142,0.0001415,53.2163,145.02,89.1908,270.9246,3.8122e-05,3.19e-06,0.0,0 STARLINK-5212,1 54075U 22136AA  23325.71972918  .00000319  00000-0  38122-4 0  9997,2 54075  53.2163 145.0200 0001415  89.1908 270.9246 15.08845142 60263,6917.865,95.437,540.709,538.751,0.0
54075.0,STARLINK-5212,PAYLOAD,2023-11-22 12:21:02,15.08843989,0.0001431,53.2165,141.4515,88.1076,272.008,9.7695e-05,1.267e-05,0.0,0 STARLINK-5212,1 54075U 22136AA  23326.51460774  .00001267  00000-0  97695-4 0  9991,2 54075  53.2165 141.4515 0001431  88.1076 272.0080 15.08843989 60386,6917.868,95.437,540.723,538.743,0.0
54075.0,STARLINK-5212,PAYLOAD,2023-11-22 18:42:34,15.08846579,0.0001447,53.2167,140.2623,88.3131,271.8027,0.00011946,1.614e-05,0.0,0 STARLINK-5212,1 54075U 22136AA  23326.77956535  .00001614  00000-0  11946-3 0  9994,2 54075  53.2167 140.2623 0001447  88.3131 271.8027 15.08846579 60900,6917.86,95.437,540.726,538.724,0.0
54075.0,STARLINK-5212,PAYLOAD,2023-11-23 12:11:49,15.08833057,0.0001763,53.2171,136.991,106.0366,254.082,-7.1615e-05,-1.427e-05,0.0,0 STARLINK-5212,1 54075U 22136AA  23327.50821353 -.00001427  00000-0 -71615-4 0  9999,2 54075  53.2171 136.9910 0001763 106.0366 254.0820 15.08833057 61019,6917.902,95.438,540.986,538.547,0.0
54075.0,STARLINK-5212,PAYLOAD,2023-11-23 18:33:24,15.0881137,0.0001238,53.2174,135.8027,86.7412,273.3722,-0.00018338,-3.203e-05,0.0,0 STARLINK-5212,1 54075U 22136AA  23327.77319855 -.00003203  00000-0 -18338-3 0  9993,2 54075  53.2174 135.8027 0001238  86.7412 273.3722 15.08811370 61055,6917.968,95.439,540.689,538.976,0.0
54075.0,STARLINK-5212,PAYLOAD,2023-11-23 21:44:10,15.08811462,0.000116,53.2176,135.2103,77.3096,282.8026,-0.00017117,-3.009e-05,0.0,0 STARLINK-5212,1 54075U 22136AA  23327.90568059 -.00003009  00000-0 -17117-3 0  9998,2 54075  53.2176 135.2103 0001160  77.3096 282.8026 15.08811462 60596,6917.968,95.439,540.635,539.03,0.0
54075.0,STARLINK-5212,PAYLOAD,2023-11-24 18:24:11,15.08829976,0.0001598,53.2183,131.3411,93.4272,266.6903,-7.416e-06,-4.06e-06,0.0,0 STARLINK-5212,1 54075U 22136AA  23328.76679536 -.00000406  00000-0 -74160-5 0  9997,2 54075  53.2183 131.3411 0001598  93.4272 266.6903 15.08829976 61205,6917.911,95.438,540.882,538.671,0.0
54075.0,STARLINK-5212,PAYLOAD,2023-11-24 21:34:57,15.08833524,0.0001616,53.2179,130.7453,106.8546,253.2624,1.9546e-05,2.3e-07,0.0,0 STARLINK-5212,1 54075U 22136AA  23328.89927233  .00000023  00000-0  19546-4 0  9990,2 54075  53.2179 130.7453 0001616 106.8546 253.2624 15.08833524 60747,6917.9,95.438,540.883,538.647,0.0
54075.0,STARLINK-5212,PAYLOAD,2023-11-25 19:50:20,15.08849472,0.0001261,53.2158,126.5843,94.3834,265.7302,0.00060279,9.321e-05,0.0,0 STARLINK-5212,1 54075U 22136AA  23329.82662996  .00009321  00000-0  60279-3 0  9994,2 54075  53.2158 126.5843 0001261  94.3834 265.7302 15.08849472 60882,6917.851,95.437,540.589,538.844,0.0
54075.0,STARLINK-5212,PAYLOAD,2023-11-26 10:08:48,15.08862696,0.0001371,53.2162,123.9061,101.1678,258.9469,0.0004823,7.401e-05,0.0,0 STARLINK-5212,1 54075U 22136AA  23330.42278112  .00007401  00000-0  48230-3 0  9995,2 54075  53.2162 123.9061 0001371 101.1678 258.9469 15.08862696 60976,6917.811,95.436,540.624,538.728,0.0
54075.0,STARLINK-5212,PAYLOAD,2023-11-26 16:30:20,15.08871981,0.0001326,53.2158,122.7174,99.7051,260.4091,0.00044257,6.769e-05,0.0,0 STARLINK-5212,1 54075U 22136AA  23330.68773344  .00006769  00000-0  44257-3 0  9991,2 54075  53.2158 122.7174 0001326  99.7051 260.4091 15.08871981 61012,6917.783,95.436,540.565,538.73,0.0
54075.0,STARLINK-5212,PAYLOAD,2023-11-27 09:59:34,15.08851766,0.0001488,53.2161,119.4472,85.5374,274.5788,-6.9625e-05,-1.396e-05,0.0,0 STARLINK-5212,1 54075U 22136AA  23331.41637276 -.00001396  00000-0 -69625-4 0  9996,2 54075  53.2161 119.4472 0001488  85.5374 274.5788 15.08851766 61603,6917.844,95.437,540.739,538.68,0.0
54075.0,STARLINK-5212,PAYLOAD,2023-11-27 14:45:44,15.08843414,0.0001091,53.2156,118.5524,88.1376,271.9741,-0.00014777,-2.639e-05,0.0,0 STARLINK-5212,1 54075U 22136AA  23331.61509391 -.00002639  00000-0 -14777-3 0  9992,2 54075  53.2156 118.5524 0001091  88.1376 271.9741 15.08843414 61157,6917.87,95.437,540.49,538.98,0.0
54075.0,STARLINK-5212,PAYLOAD,2023-11-27 16:21:07,15.08843776,0.0001184,53.2157,118.2552,92.3505,267.7622,-0.00015964,-2.828e-05,0.0,0 STARLINK-5212,1 54075U 22136AA  23331.68133447 -.00002828  00000-0 -15964-3 0  9993,2 54075  53.2157 118.2552 0001184  92.3505 267.7622 15.08843776 61646,6917.869,95.437,540.553,538.915,0.0
54075.0,STARLINK-5212,PAYLOAD,2023-11-28 14:36:30,15.08847562,0.0001352,53.2181,114.091,105.9523,254.1618,8.4277e-06,-1.54e-06,0.0,0 STARLINK-5212,1 54075U 22136AA  23332.60869202 -.00000154  00000-0  84277-5 0  9995,2 54075  53.2181 114.0910 0001352 105.9523 254.1618 15.08847562 61308,6917.857,95.437,540.658,538.787,0.0
54075.0,STARLINK-5212,PAYLOAD,2023-11-28 19:22:40,15.08852929,0.0001342,53.2173,113.1977,106.3385,253.7755,8.7376e-05,1.103e-05,0.0,0 STARLINK-5212,1 54075U 22136AA  23332.80740938  .00001103  00000-0  87376-4 0  9997,2 54075  53.2173 113.1977 0001342 106.3385 253.7755 15.08852929 61818,6917.841,95.437,540.634,538.777,0.0
54075.0,STARLINK-5212,PAYLOAD,2023-11-29 09:41:08,15.08839228,0.0001218,53.2177,110.5166,131.5381,228.5716,2.6587e-05,1.35e-06,0.0,0 STARLINK-5212,1 54075U 22136AA  23333.40357455  .00000135  00000-0  26587-4 0  9993,2 54075  53.2177 110.5166 0001218 131.5381 228.5716 15.08839228 61905,6917.883,95.438,540.59,538.905,0.0
54075.0,STARLINK-5212,PAYLOAD,2023-11-29 14:27:18,15.08838674,0.0001275,53.2167,109.6323,94.5847,265.5291,0.0001434,1.995e-05,0.0,0 STARLINK-5212,1 54075U 22136AA  23333.60229895  .00001995  00000-0  14340-3 0  9999,2 54075  53.2167 109.6323 0001275  94.5847 265.5291 15.08838674 61459,6917.884,95.438,540.631,538.867,0.0
54075.0,STARLINK-5212,PAYLOAD,2023-11-30 15:53:28,15.08846007,0.0001217,53.2177,104.8731,93.2916,266.8215,0.00022258,3.257e-05,0.0,0 STARLINK-5212,1 54075U 22136AA  23334.66213760  .00003257  00000-0  22258-3 0  9990,2 54075  53.2177 104.8731 0001217  93.2916 266.8215 15.08846007 62099,6917.862,95.437,540.569,538.885,0.0
54075.0,STARLINK-5212,PAYLOAD,2023-12-01 14:08:52,15.08845711,0.0001482,53.2175,100.7118,108.3381,251.7773,0.0002475,3.654e-05,0.0,0 STARLINK-5212,1 54075U 22136AA  23335.58949955  .00003654  00000-0  24750-3 0  9994,2 54075  53.2175 100.7118 0001482 108.3381 251.7773 15.08845711 62238,6917.863,95.437,540.753,538.703,0.0
54075.0,STARLINK-5212,PAYLOAD,2023-12-02 12:24:15,15.08871098,0.0001437,53.2181,96.5519,94.7949,265.3207,0.00072041,0.00011206,0.0,0 STARLINK-5212,1 54075U 22136AA  23336.51684722  .00011206  00000-0  72041-3 0  9994,2 54075  53.2181  96.5519 0001437  94.7949 265.3207 15.08871098 62375,6917.785,95.436,540.644,538.656,0.0
54075.0,STARLINK-5212,PAYLOAD,2023-12-02 13:59:38,15.08863365,0.0001448,53.218,96.2554,93.8861,266.2297,0.00042376,6.467e-05,0.0,0 STARLINK-5212,1 54075U 22136AA  23336.58308767  .00006467  00000-0  42376-3 0  9994,2 54075  53.2180  96.2554 0001448  93.8861 266.2297 15.08863365 61900,6917.809,95.436,540.676,538.672,0.0
54075.0,STARLINK-5212,PAYLOAD,2023-12-03 12:15:05,15.08808195,0.000163,53.2179,92.0929,101.0259,259.0917,-0.00041246,-6.841e-05,0.0,0 STARLINK-5212,1 54075U 22136AA  23337.51047482 -.00006841  00000-0 -41246-3 0  9995,2 54075  53.2179  92.0929 0001630 101.0259 259.0917 15.08808195 62522,6917.978,95.44,540.97,538.715,0.0
54075.0,STARLINK-5212,PAYLOAD,2023-12-03 13:50:28,15.08806836,0.0001707,53.2177,91.7953,97.8051,262.3135,-0.00035418,-5.915e-05,0.0,0 STARLINK-5212,1 54075U 22136AA  23337.57671710 -.00005915  00000-0 -35418-3 0  9993,2 54075  53.2177  91.7953 0001707  97.8051 262.3135 15.08806836 62057,6917.982,95.44,541.028,538.666,0.0
54075.0,STARLINK-5212,PAYLOAD,2023-12-04 12:05:53,15.08828275,0.0001946,53.2171,87.6346,57.0757,303.0422,0.00049165,7.543e-05,0.0,0 STARLINK-5212,1 54075U 22136AA  23338.50408567  .00007543  00000-0  49165-3 0  9996,2 54075  53.2171  87.6346 0001946  57.0757 303.0422 15.08828275 62678,6917.916,95.438,541.127,538.435,0.0
54075.0,STARLINK-5212,PAYLOAD,2023-12-05 11:56:39,15.08867682,0.0001427,53.2158,83.1703,83.1802,276.9352,0.00081231,0.00012673,0.0,0 STARLINK-5212,1 54075U 22136AA  23339.49767367  .00012673  00000-0  81231-3 0  9991,2 54075  53.2158  83.1703 0001427  83.1802 276.9352 15.08867682 62828,6917.796,95.436,540.648,538.674,0.0
54075.0,STARLINK-5212,PAYLOAD,2023-12-05 13:32:01,15.08877809,0.0001543,53.2158,82.873,79.1932,280.9233,0.0010026,0.00015721,0.0,0 STARLINK-5212,1 54075U 22136AA  23339.56391130  .00015721  00000-0  10026-2 0  9990,2 54075  53.2158  82.8730 0001543  79.1932 280.9233 15.08877809 62355,6917.765,95.435,540.697,538.562,0.0
54075.0,STARLINK-5212,PAYLOAD,2023-12-05 16:42:47,15.08888819,0.000152,53.2158,82.2778,80.1965,279.9198,0.0012592,0.00019836,0.0,0 STARLINK-5212,1 54075U 22136AA  23339.69638652  .00019836  00000-0  12592-2 0  9998,2 54075  53.2158  82.2778 0001520  80.1965 279.9198 15.08888819 62850,6917.731,95.434,540.648,538.545,0.0
54075.0,STARLINK-5212,PAYLOAD,2023-12-06 11:47:25,15.08849223,0.0001494,53.2172,78.707,97.1299,262.9863,7.3595e-05,8.84e-06,0.0,0 STARLINK-5212,1 54075U 22136AA  23340.49126562  .00000884  00000-0  73595-4 0  9995,2 54075  53.2172  78.7070 0001494  97.1299 262.9863 15.08849223 62979,6917.852,95.437,540.751,538.684,0.0
54075.0,STARLINK-5212,PAYLOAD,2023-12-06 13:22:48,15.08848271,0.0001634,53.2171,78.4092,104.8228,255.2946,5.8587e-05,6.45e-06,0.0,0 STARLINK-5212,1 54075U 22136AA  23340.55750495  .00000645  00000-0  58587-4 0  9999,2 54075  53.2171  78.4092 0001634 104.8228 255.2946 15.08848271 62501,6917.855,95.437,540.85,538.59,0.0
